{"type": "FeatureCollection", "features": [ {"type": "Feature", "properties": {"norad_id": 35111, "name": "FENGYUN 1C DEB", "group": "fengyun-1c-debris", "lat": -68.51056825566819, "lon": 105.45604776997442, "alt_km": 868.3042653860493, "timestamp": "2025-12-26T23:26:42.414639+00:00", "meta": {"OBJECT_NAME": "FENGYUN 1C DEB", "OBJECT_ID": "1999-025DKP", "EPOCH": "2025-12-16T11:54:10.013472", "MEAN_MOTION": 14.10973478, "ECCENTRICITY": 0.0021869, "INCLINATION": 99.4657, "RA_OF_ASC_NODE": 69.3478, "ARG_OF_PERICENTER": 209.5025, "MEAN_ANOMALY": 150.4911, "EPHEMERIS_TYPE": 0, "CLASSIFICATION_TYPE": "U", "NORAD_CAT_ID": 35111, "ELEMENT_SET_NO": 999, "REV_AT_EPOCH": 64197, "BSTAR": 0.00043746639, "MEAN_MOTION_DOT": 7.38e-06, "MEAN_MOTION_DDOT": 0}, "tle": {"line1": "1 35111U 99025DKP 25350.49594923  .00000738  00000+0  43747-3 0  9991", "line2": "2 35111  99.4657  69.3478 0021869 209.5025 150.4911 14.10973478641971"}}, "geometry": {"type": "Point", "coordinates": [105.45604776997442, -68.51056825566819]}}, {"type": "Feature", "properties": {"norad_id": 35116, "name": "FENGYUN 1C DEB", "group": "fengyun-1c-debris", "lat": 3.94363263114915, "lon": -132.63869718862034, "alt_km": 851.6492147323052, "timestamp": "2025-12-26T23:26:42.414648+00:00", "meta": {"OBJECT_NAME": "FENGYUN 1C DEB", "OBJECT_ID": "1999-025DKU", "EPOCH": "2025-12-24T09:57:48.369888", "MEAN_MOTION": 14.25125441, "ECCENTRICITY": 0.00585622, "INCLINATION": 98.6606, "RA_OF_ASC_NODE": 44.2312, "ARG_OF_PERICENTER": 14.893, "MEAN_ANOMALY": 345.3957, "EPHEMERIS_TYPE": 0, "CLASSIFICATION_TYPE": "U", "NORAD_CAT_ID": 35116, "ELEMENT_SET_NO": 999, "REV_AT_EPOCH": 60126, "BSTAR": 0.0010177664, "MEAN_MOTION_DOT": 2.388e-05, "MEAN_MOTION_DDOT": 0}, "tle": {"line1": "1 35116U 99025DKU 25358.41514317  .00002388  00000+0  10178-2 0  9999", "line2": "2 35116  98.6606  44.2312 0058562  14.8930 345.3957 14.25125441601260"}}, "geometry": {"type": "Point", "coordinates": [-132.63869718862034, 3.94363263114915]}}, {"type": "Feature", "properties": {"norad_id": 35121, "name": "FENGYUN 1C DEB", "group": "fengyun-1c-debris", "lat": 32.531391911295735, "lon": -142.31496573677632, "alt_km": 769.6038292245921, "timestamp": "2025-12-26T23:26:42.414656+00:00", "meta": {"OBJECT_NAME": "FENGYUN 1C DEB", "OBJECT_ID": "1999-025DKZ", "EPOCH": "2025-12-24T09:45:12.648096", "MEAN_MOTION": 14.04760226, "ECCENTRICITY": 0.01583792, "INCLINATION": 98.3006, "RA_OF_ASC_NODE": 220.6752, "ARG_OF_PERICENTER": 63.7329, "MEAN_ANOMALY": 298.0018, "EPHEMERIS_TYPE": 0, "CLASSIFICATION_TYPE": "U", "NORAD_CAT_ID": 35121, "ELEMENT_SET_NO": 999, "REV_AT_EPOCH": 61255, "BSTAR": 0.00033495737, "MEAN_MOTION_DOT": 5.63e-06, "MEAN_MOTION_DDOT": 0}, "tle": {"line1": "1 35121U 99025DKZ 25358.40639639  .00000563  00000+0  33496-3 0  9991", "line2": "2 35121  98.3006 220.6752 0158379  63.7329 298.0018 14.04760226612556"}}, "geometry": {"type": "Point", "coordinates": [-142.31496573677632, 32.531391911295735]}}, {"type": "Feature", "properties": {"norad_id": 35122, "name": "FENGYUN 1C DEB", "group": "fengyun-1c-debris", "lat": 72.8144388152087, "lon": -10.597473549295652, "alt_km": 824.5697747428421, "timestamp": "2025-12-26T23:26:42.414665+00:00", "meta": {"OBJECT_NAME": "FENGYUN 1C DEB", "OBJECT_ID": "1999-025DLA", "EPOCH": "2025-12-23T18:40:36.959520", "MEAN_MOTION": 14.14136172, "ECCENTRICITY": 0.00257053, "INCLINATION": 98.6712, "RA_OF_ASC_NODE": 15.8646, "ARG_OF_PERICENTER": 127.0383, "MEAN_ANOMALY": 233.3147, "EPHEMERIS_TYPE": 0, "CLASSIFICATION_TYPE": "U", "NORAD_CAT_ID": 35122, "ELEMENT_SET_NO": 999, "REV_AT_EPOCH": 64023, "BSTAR": 0.00025927535, "MEAN_MOTION_DOT": 4.53e-06, "MEAN_MOTION_DDOT": 0}, "tle": {"line1": "1 35122U 99025DLA 25357.77820555  .00000453  00000+0  25928-3 0  9999", "line2": "2 35122  98.6712  15.8646 0025705 127.0383 233.3147 14.14136172640239"}}, "geometry": {"type": "Point", "coordinates": [-10.597473549295652, 72.8144388152087]}}, {"type": "Feature", "properties": {"norad_id": 35123, "name": "FENGYUN 1C DEB", "group": "fengyun-1c-debris", "lat": 27.411396538383787, "lon": 179.42055672116203, "alt_km": 774.6274187487406, "timestamp": "2025-12-26T23:26:42.414673+00:00", "meta": {"OBJECT_NAME": "FENGYUN 1C DEB", "OBJECT_ID": "1999-025DLB", "EPOCH": "2025-12-26T18:15:29.262240", "MEAN_MOTION": 14.24252984, "ECCENTRICITY": 0.004942, "INCLINATION": 99.1222, "RA_OF_ASC_NODE": 183.9761, "ARG_OF_PERICENTER": 36.5408, "MEAN_ANOMALY": 323.9124, "EPHEMERIS_TYPE": 0, "CLASSIFICATION_TYPE": "U", "NORAD_CAT_ID": 35123, "ELEMENT_SET_NO": 999, "REV_AT_EPOCH": 61273, "BSTAR": 0.00057166, "MEAN_MOTION_DOT": 1.288e-05, "MEAN_MOTION_DDOT": 0}, "tle": {"line1": "1 35123U 99025DLB 25360.76075535  .00001288  00000+0  57166-3 0  9999", "line2": "2 35123  99.1222 183.9761 0049420  36.5408 323.9124 14.24252984612735"}}, "geometry": {"type": "Point", "coordinates": [179.42055672116203, 27.411396538383787]}}, {"type": "Feature", "properties": {"norad_id": 35125, "name": "FENGYUN 1C DEB", "group": "fengyun-1c-debris", "lat": -27.568570131490628, "lon": -173.0305676275548, "alt_km": 759.6392264812894, "timestamp": "2025-12-26T23:26:42.414682+00:00", "meta": {"OBJECT_NAME": "FENGYUN 1C DEB", "OBJECT_ID": "1999-025DLD", "EPOCH": "2025-12-26T07:23:40.170048", "MEAN_MOTION": 14.33225207, "ECCENTRICITY": 0.0052038, "INCLINATION": 98.216, "RA_OF_ASC_NODE": 10.6608, "ARG_OF_PERICENTER": 253.3778, "MEAN_ANOMALY": 106.169, "EPHEMERIS_TYPE": 0, "CLASSIFICATION_TYPE": "U", "NORAD_CAT_ID": 35125, "ELEMENT_SET_NO": 999, "REV_AT_EPOCH": 31476, "BSTAR": 0.001253, "MEAN_MOTION_DOT": 3.457e-05, "MEAN_MOTION_DDOT": 0}, "tle": {"line1": "1 35125U 99025DLD 25360.30810382  .00003457  00000+0  12530-2 0  9993", "line2": "2 35125  98.2160  10.6608 0052038 253.3778 106.1690 14.33225207314761"}}, "geometry": {"type": "Point", "coordinates": [-173.0305676275548, -27.568570131490628]}}, {"type": "Feature", "properties": {"norad_id": 35130, "name": "FENGYUN 1C DEB", "group": "fengyun-1c-debris", "lat": 52.3411855310366, "lon": -164.0424160845828, "alt_km": 546.1417125144499, "timestamp": "2025-12-26T23:26:42.414691+00:00", "meta": {"OBJECT_NAME": "FENGYUN 1C DEB", "OBJECT_ID": "1999-025DLJ", "EPOCH": "2025-12-21T20:07:04.434528", "MEAN_MOTION": 15.01765435, "ECCENTRICITY": 0.00121415, "INCLINATION": 99.0319, "RA_OF_ASC_NODE": 201.8749, "ARG_OF_PERICENTER": 44.6238, "MEAN_ANOMALY": 315.5957, "EPHEMERIS_TYPE": 0, "CLASSIFICATION_TYPE": "U", "NORAD_CAT_ID": 35130, "ELEMENT_SET_NO": 999, "REV_AT_EPOCH": 65050, "BSTAR": 0.006798984, "MEAN_MOTION_DOT": 0.00089702, "MEAN_MOTION_DDOT": 0}, "tle": {"line1": "1 35130U 99025DLJ 25355.83824577  .00089702  00000+0  67990-2 0  9999", "line2": "2 35130  99.0319 201.8749 0012141  44.6238 315.5957 15.01765435650500"}}, "geometry": {"type": "Point", "coordinates": [-164.0424160845828, 52.3411855310366]}}, {"type": "Feature", "properties": {"norad_id": 35135, "name": "FENGYUN 1C DEB", "group": "fengyun-1c-debris", "lat": 73.56267250607232, "lon": -139.89363468271432, "alt_km": 853.071978941809, "timestamp": "2025-12-26T23:26:42.414700+00:00", "meta": {"OBJECT_NAME": "FENGYUN 1C DEB", "OBJECT_ID": "1999-025DLP", "EPOCH": "2025-12-24T11:52:08.678496", "MEAN_MOTION": 14.22564349, "ECCENTRICITY": 0.00809281, "INCLINATION": 98.5655, "RA_OF_ASC_NODE": 6.9722, "ARG_OF_PERICENTER": 249.8377, "MEAN_ANOMALY": 109.4083, "EPHEMERIS_TYPE": 0, "CLASSIFICATION_TYPE": "U", "NORAD_CAT_ID": 35135, "ELEMENT_SET_NO": 999, "REV_AT_EPOCH": 87991, "BSTAR": 0.00044436742, "MEAN_MOTION_DOT": 9.83e-06, "MEAN_MOTION_DDOT": 0}, "tle": {"line1": "1 35135U 99025DLP 25358.49454489  .00000983  00000+0  44437-3 0  9996", "line2": "2 35135  98.5655   6.9722 0080928 249.8377 109.4083 14.22564349879919"}}, "geometry": {"type": "Point", "coordinates": [-139.89363468271432, 73.56267250607232]}}, {"type": "Feature", "properties": {"norad_id": 35139, "name": "FENGYUN 1C DEB", "group": "fengyun-1c-debris", "lat": 55.85674539966909, "lon": -161.33854115296688, "alt_km": 849.1357316753174, "timestamp": "2025-12-26T23:26:42.414708+00:00", "meta": {"OBJECT_NAME": "FENGYUN 1C DEB", "OBJECT_ID": "1999-025DLT", "EPOCH": "2025-12-23T06:59:35.689920", "MEAN_MOTION": 14.21110814, "ECCENTRICITY": 0.00678971, "INCLINATION": 98.583, "RA_OF_ASC_NODE": 2.2123, "ARG_OF_PERICENTER": 266.3945, "MEAN_ANOMALY": 92.9465, "EPHEMERIS_TYPE": 0, "CLASSIFICATION_TYPE": "U", "NORAD_CAT_ID": 35139, "ELEMENT_SET_NO": 999, "REV_AT_EPOCH": 64303, "BSTAR": 0.0003440048, "MEAN_MOTION_DOT": 7.22e-06, "MEAN_MOTION_DDOT": 0}, "tle": {"line1": "1 35139U 99025DLT 25357.29138530  .00000722  00000+0  34400-3 0  9993", "line2": "2 35139  98.5830   2.2123 0067897 266.3945  92.9465 14.21110814643032"}}, "geometry": {"type": "Point", "coordinates": [-161.33854115296688, 55.85674539966909]}}, {"type": "Feature", "properties": {"norad_id": 35140, "name": "FENGYUN 1C DEB", "group": "fengyun-1c-debris", "lat": -40.54562587562522, "lon": 154.45557044159995, "alt_km": 731.0623358708781, "timestamp": "2025-12-26T23:26:42.414717+00:00", "meta": {"OBJECT_NAME": "FENGYUN 1C DEB", "OBJECT_ID": "1999-025DLU", "EPOCH": "2025-12-25T04:08:35.577600", "MEAN_MOTION": 14.21366146, "ECCENTRICITY": 0.02900907, "INCLINATION": 98.4461, "RA_OF_ASC_NODE": 340.0292, "ARG_OF_PERICENTER": 290.3158, "MEAN_ANOMALY": 66.7068, "EPHEMERIS_TYPE": 0, "CLASSIFICATION_TYPE": "U", "NORAD_CAT_ID": 35140, "ELEMENT_SET_NO": 999, "REV_AT_EPOCH": 87455, "BSTAR": 0.0002082318, "MEAN_MOTION_DOT": 6.44e-06, "MEAN_MOTION_DDOT": 0}, "tle": {"line1": "1 35140U 99025DLU 25359.17263400  .00000644  00000+0  20823-3 0  9996", "line2": "2 35140  98.4461 340.0292 0290090 290.3158  66.7068 14.21366146874551"}}, "geometry": {"type": "Point", "coordinates": [154.45557044159995, -40.54562587562522]}}]}